{"type": "FeatureCollection", "features": [{"type": "Feature", "properties": {"norad_id": 2807, "name": "OPS 7218 (TRANSIT 16)", "group": "nnss", "lat": -53.35180924481733, "lon": -6.850198229751296, "alt_km": 1087.87669060185, "timestamp": "2025-12-25T14:48:25.045468+00:00", "meta": {"OBJECT_NAME": "OPS 7218 (TRANSIT 16)", "OBJECT_ID": "1967-048A", "EPOCH": "2025-12-25T01:10:04.103904", "MEAN_MOTION": 13.50724741, "ECCENTRICITY": 0.00221479, "INCLINATION": 89.6734, "RA_OF_ASC_NODE": 353.6078, "ARG_OF_PERICENTER": 81.3315, "MEAN_ANOMALY": 343.8092, "EPHEMERIS_TYPE": 0, "CLASSIFICATION_TYPE": "U", "NORAD_CAT_ID": 2807, "ELEMENT_SET_NO": 999, "REV_AT_EPOCH": 88442, "BSTAR": 0.00013354144, "MEAN_MOTION_DOT": 9.6e-07, "MEAN_MOTION_DDOT": 0}, "tle": {"line1": "1 02807U 67048A   25359.04865861  .00000096  00000+0  13354-3 0  9997", "line2": "2 02807  89.6734 353.6078 0022147  81.3315 343.8092 13.50724741884424"}}, "geometry": {"type": "Point", "coordinates": [-6.850198229751296, -53.35180924481733]}}, {"type": "Feature", "properties": {"norad_id": 2965, "name": "OPS 4947 (TRANSIT 17)", "group": "nnss", "lat": 42.50141815374464, "lon": -157.23603780538525, "alt_km": 1037.9316254010082, "timestamp": "2025-12-25T14:48:25.045487+00:00", "meta": {"OBJECT_NAME": "OPS 4947 (TRANSIT 17)", "OBJECT_ID": "1967-092A", "EPOCH": "2025-12-24T15:39:13.887648", "MEAN_MOTION": 13.53456658, "ECCENTRICITY": 0.00470847, "INCLINATION": 89.2486, "RA_OF_ASC_NODE": 23.5265, "ARG_OF_PERICENTER": 199.1608, "MEAN_ANOMALY": 281.0103, "EPHEMERIS_TYPE": 0, "CLASSIFICATION_TYPE": "U", "NORAD_CAT_ID": 2965, "ELEMENT_SET_NO": 999, "REV_AT_EPOCH": 87258, "BSTAR": 0.00018040166, "MEAN_MOTION_DOT": 1.33e-06, "MEAN_MOTION_DDOT": 0}, "tle": {"line1": "1 02965U 67092A   25358.65224407  .00000133  00000+0  18040-3 0  9991", "line2": "2 02965  89.2486  23.5265 0047084 199.1608 281.0103 13.53456658872582"}}, "geometry": {"type": "Point", "coordinates": [-157.23603780538525, 42.50141815374464]}}, {"type": "Feature", "properties": {"norad_id": 3133, "name": "OPS 7034 (TRANSIT 18)", "group": "nnss", "lat": -20.532957770705625, "lon": 93.66502349195102, "alt_km": 1050.6794367586963, "timestamp": "2025-12-25T14:48:25.045499+00:00", "meta": {"OBJECT_NAME": "OPS 7034 (TRANSIT 18)", "OBJECT_ID": "1968-012A", "EPOCH": "2025-12-25T07:16:25.166784", "MEAN_MOTION": 13.51568645, "ECCENTRICITY": 0.00749856, "INCLINATION": 90.0285, "RA_OF_ASC_NODE": 273.6748, "ARG_OF_PERICENTER": 133.0584, "MEAN_ANOMALY": 340.2103, "EPHEMERIS_TYPE": 0, "CLASSIFICATION_TYPE": "U", "NORAD_CAT_ID": 3133, "ELEMENT_SET_NO": 999, "REV_AT_EPOCH": 57088, "BSTAR": 0.00021382426, "MEAN_MOTION_DOT": 1.52e-06, "MEAN_MOTION_DDOT": 0}, "tle": {"line1": "1 03133U 68012A   25359.30306906  .00000152  00000+0  21382-3 0  9994", "line2": "2 03133  90.0285 273.6748 0074985 133.0584 340.2103 13.51568645570885"}}, "geometry": {"type": "Point", "coordinates": [93.66502349195102, -20.532957770705625]}}, {"type": "Feature", "properties": {"norad_id": 4507, "name": "NNSS 19 (TRANSIT 19)", "group": "nnss", "lat": 22.368314289951115, "lon": 54.544426968519886, "alt_km": 1082.9828033328959, "timestamp": "2025-12-25T14:48:25.045509+00:00", "meta": {"OBJECT_NAME": "NNSS 19 (TRANSIT 19)", "OBJECT_ID": "1970-067A", "EPOCH": "2025-12-25T05:07:31.565856", "MEAN_MOTION": 13.51317581, "ECCENTRICITY": 0.01702064, "INCLINATION": 90.0047, "RA_OF_ASC_NODE": 234.5423, "ARG_OF_PERICENTER": 256.8648, "MEAN_ANOMALY": 101.3462, "EPHEMERIS_TYPE": 0, "CLASSIFICATION_TYPE": "U", "NORAD_CAT_ID": 4507, "ELEMENT_SET_NO": 999, "REV_AT_EPOCH": 72390, "BSTAR": 0.00013220227, "MEAN_MOTION_DOT": 1.02e-06, "MEAN_MOTION_DDOT": 0}, "tle": {"line1": "1 04507U 70067A   25359.21355979  .00000102  00000+0  13220-3 0  9994", "line2": "2 04507  90.0047 234.5423 0170206 256.8648 101.3462 13.51317581723909"}}, "geometry": {"type": "Point", "coordinates": [54.544426968519886, 22.368314289951115]}}, {"type": "Feature", "properties": {"norad_id": 6909, "name": "NNSS 20 (TRANSIT 20)", "group": "nnss", "lat": 84.83060060578771, "lon": -103.54585845193157, "alt_km": 904.275511844271, "timestamp": "2025-12-25T14:48:25.045519+00:00", "meta": {"OBJECT_NAME": "NNSS 20 (TRANSIT 20)", "OBJECT_ID": "1973-081A", "EPOCH": "2025-12-25T05:39:04.894848", "MEAN_MOTION": 13.71440852, "ECCENTRICITY": 0.01561267, "INCLINATION": 89.856, "RA_OF_ASC_NODE": 254.867, "ARG_OF_PERICENTER": 41.2783, "MEAN_ANOMALY": 320.0059, "EPHEMERIS_TYPE": 0, "CLASSIFICATION_TYPE": "U", "NORAD_CAT_ID": 6909, "ELEMENT_SET_NO": 999, "REV_AT_EPOCH": 80532, "BSTAR": 0.00028066336, "MEAN_MOTION_DOT": 2.86e-06, "MEAN_MOTION_DDOT": 0}, "tle": {"line1": "1 06909U 73081A   25359.23547332  .00000286  00000+0  28066-3 0  9996", "line2": "2 06909  89.8560 254.8670 0156126  41.2783 320.0059 13.71440852805322"}}, "geometry": {"type": "Point", "coordinates": [-103.54585845193157, 84.83060060578771]}}, {"type": "Feature", "properties": {"norad_id": 10457, "name": "TRANSAT", "group": "nnss", "lat": 54.31288887575036, "lon": 78.63193413240074, "alt_km": 1073.9780534460506, "timestamp": "2025-12-25T14:48:25.045530+00:00", "meta": {"OBJECT_NAME": "TRANSAT", "OBJECT_ID": "1977-106A", "EPOCH": "2025-12-25T03:56:24.941184", "MEAN_MOTION": 13.48945499, "ECCENTRICITY": 0.00265218, "INCLINATION": 89.6475, "RA_OF_ASC_NODE": 78.1569, "ARG_OF_PERICENTER": 154.2871, "MEAN_ANOMALY": 222.9086, "EPHEMERIS_TYPE": 0, "CLASSIFICATION_TYPE": "U", "NORAD_CAT_ID": 10457, "ELEMENT_SET_NO": 999, "REV_AT_EPOCH": 36911, "BSTAR": 0.00012822954, "MEAN_MOTION_DOT": 9.1e-07, "MEAN_MOTION_DDOT": 0}, "tle": {"line1": "1 10457U 77106A   25359.16417756  .00000091  00000+0  12823-3 0  9997", "line2": "2 10457  89.6475  78.1569 0026521 154.2871 222.9086 13.48945499369113"}}, "geometry": {"type": "Point", "coordinates": [78.63193413240074, 54.31288887575036]}}, {"type": "Feature", "properties": {"norad_id": 12458, "name": "NOVA 1", "group": "nnss", "lat": -28.262588556059686, "lon": -88.71754341556445, "alt_km": 1186.5614408112233, "timestamp": "2025-12-25T14:48:25.045543+00:00", "meta": {"OBJECT_NAME": "NOVA 1", "OBJECT_ID": "1981-044A", "EPOCH": "2025-12-25T00:07:00.564960", "MEAN_MOTION": 13.23279741, "ECCENTRICITY": 0.00157413, "INCLINATION": 89.8525, "RA_OF_ASC_NODE": 91.2118, "ARG_OF_PERICENTER": 73.8704, "MEAN_ANOMALY": 99.9773, "EPHEMERIS_TYPE": 0, "CLASSIFICATION_TYPE": "U", "NORAD_CAT_ID": 12458, "ELEMENT_SET_NO": 999, "REV_AT_EPOCH": 15348, "BSTAR": 0.00017384443, "MEAN_MOTION_DOT": 8.3e-07, "MEAN_MOTION_DDOT": 0}, "tle": {"line1": "1 12458U 81044A   25359.00486765  .00000083  00000+0  17384-3 0  9993", "line2": "2 12458  89.8525  91.2118 0015741  73.8704  99.9773 13.23279741153482"}}, "geometry": {"type": "Point", "coordinates": [-88.71754341556445, -28.262588556059686]}}, {"type": "Feature", "properties": {"norad_id": 15362, "name": "NOVA 3", "group": "nnss", "lat": 70.09750834665508, "lon": 80.34970809958999, "alt_km": 1182.41391196116, "timestamp": "2025-12-25T14:48:25.045561+00:00", "meta": {"OBJECT_NAME": "NOVA 3", "OBJECT_ID": "1984-110A", "EPOCH": "2025-12-25T07:31:21.566784", "MEAN_MOTION": 13.230462, "ECCENTRICITY": 0.00298629, "INCLINATION": 90.1217, "RA_OF_ASC_NODE": 80.6825, "ARG_OF_PERICENTER": 295.6567, "MEAN_ANOMALY": 129.4524, "EPHEMERIS_TYPE": 0, "CLASSIFICATION_TYPE": "U", "NORAD_CAT_ID": 15362, "ELEMENT_SET_NO": 999, "REV_AT_EPOCH": 98865, "BSTAR": 0.00014301393, "MEAN_MOTION_DOT": 6.8e-07, "MEAN_MOTION_DDOT": 0}, "tle": {"line1": "1 15362U 84110A   25359.31344406  .00000068  00000+0  14301-3 0  9995", "line2": "2 15362  90.1217  80.6825 0029862 295.6567 129.4524 13.23046200988659"}}, "geometry": {"type": "Point", "coordinates": [80.34970809958999, 70.09750834665508]}}, {"type": "Feature", "properties": {"norad_id": 15935, "name": "OSCAR 30", "group": "nnss", "lat": 33.490381762377716, "lon": 99.94820934162819, "alt_km": 998.9265035114513, "timestamp": "2025-12-25T14:48:25.045571+00:00", "meta": {"OBJECT_NAME": "OSCAR 30", "OBJECT_ID": "1985-066A", "EPOCH": "2025-12-25T01:06:57.918816", "MEAN_MOTION": 13.36080406, "ECCENTRICITY": 0.01688606, "INCLINATION": 90.1652, "RA_OF_ASC_NODE": 100.0483, "ARG_OF_PERICENTER": 49.502, "MEAN_ANOMALY": 122.347, "EPHEMERIS_TYPE": 0, "CLASSIFICATION_TYPE": "U", "NORAD_CAT_ID": 15935, "ELEMENT_SET_NO": 999, "REV_AT_EPOCH": 96617, "BSTAR": 0.00021167705, "MEAN_MOTION_DOT": 1.27e-06, "MEAN_MOTION_DDOT": 0}, "tle": {"line1": "1 15935U 85066A   25359.04650369  .00000127  00000+0  21168-3 0  9995", "line2": "2 15935  90.1652 100.0483 0168860  49.5020 122.3470 13.36080406966172"}}, "geometry": {"type": "Point", "coordinates": [99.94820934162819, 33.490381762377716]}}, {"type": "Feature", "properties": {"norad_id": 15936, "name": "OSCAR 24", "group": "nnss", "lat": 75.70419917045405, "lon": -86.76357268857569, "alt_km": 1033.9636308008157, "timestamp": "2025-12-25T14:48:25.045582+00:00", "meta": {"OBJECT_NAME": "OSCAR 24", "OBJECT_ID": "1985-066B", "EPOCH": "2025-12-25T07:23:52.476000", "MEAN_MOTION": 13.35937594, "ECCENTRICITY": 0.01700281, "INCLINATION": 90.1791, "RA_OF_ASC_NODE": 92.5277, "ARG_OF_PERICENTER": 55.2267, "MEAN_ANOMALY": 3.7314, "EPHEMERIS_TYPE": 0, "CLASSIFICATION_TYPE": "U", "NORAD_CAT_ID": 15936, "ELEMENT_SET_NO": 999, "REV_AT_EPOCH": 96811, "BSTAR": 0.00016593218, "MEAN_MOTION_DOT": 1.02e-06, "MEAN_MOTION_DDOT": 0}, "tle": {"line1": "1 15936U 85066B   25359.30824625  .00000102  00000+0  16593-3 0  9992", "line2": "2 15936  90.1791  92.5277 0170028  55.2267   3.7314 13.35937594968112"}}, "geometry": {"type": "Point", "coordinates": [-86.76357268857569, 75.70419917045405]}}]}